STARLINK-30069          
1 56834U 23079M   26067.48212902 -.00002416  00000+0 -80472-4 0  9995
2 56834  42.9986 110.4464 0000469 272.6695  87.4103 15.26726881152740
STARLINK-35444          
1 66511U 25263AC  26068.12224716  .00038459  00000+0  13985-2 0  9990
2 66511  43.0040 353.7617 0001930 243.9267 116.1386 15.27610410 18811
